[{"OBJECT_NAME":"VSP ROSE","OBJECT_ID":"2024-043AC","EPOCH":"2026-03-09T21:48:06.922944","MEAN_MOTION":15.27746075,"ECCENTRICITY":0.00099339,"INCLINATION":97.5443,"RA_OF_ASC_NODE":203.927,"ARG_OF_PERICENTER":232.2702,"MEAN_ANOMALY":127.7637,"EPHEMERIS_TYPE":0,"CLASSIFICATION_TYPE":"U","NORAD_CAT_ID":59124,"ELEMENT_SET_NO":999,"REV_AT_EPOCH":11182,"BSTAR":0.00025731354,"MEAN_MOTION_DOT":6.907e-5,"MEAN_MOTION_DDOT":0},{"OBJECT_NAME":"STARLINK-33925","OBJECT_ID":"2025-091U","EPOCH":"2026-03-09T22:41:15.190944","MEAN_MOTION":15.27602119,"ECCENTRICITY":0.00020427,"INCLINATION":43.0068,"RA_OF_ASC_NODE":50.8764,"ARG_OF_PERICENTER":273.7562,"MEAN_ANOMALY":86.3056,"EPHEMERIS_TYPE":0,"CLASSIFICATION_TYPE":"U","NORAD_CAT_ID":63793,"ELEMENT_SET_NO":999,"REV_AT_EPOCH":4905,"BSTAR":0.0013893248,"MEAN_MOTION_DOT":0.00038194,"MEAN_MOTION_DDOT":0}]
